{
  "type": "FeatureCollection",
  "features": [
    {
      "type": "Feature",
      "properties": {
        "norad_id": 38091,
        "name": "BEIDOU-2 G5 (C05)",
        "group": "gnss",
        "lat": -2.709244640030308,
        "lon": 8.609469319210259,
        "alt_km": 35770.78955879903,
        "timestamp": "2025-12-03T15:48:03.315621+00:00",
        "meta_object_name": "BEIDOU-2 G5 (C05)",
        "meta_object_id": "2012-008A",
        "meta_epoch": "2025-12-03T02:02:57.759072",
        "meta_mean_motion": 1.00272197,
        "meta_eccentricity": 0.00122905,
        "meta_inclination": 3.0833,
        "meta_ra_of_asc_node": 70.7346,
        "meta_arg_of_pericenter": 225.4564,
        "meta_mean_anomaly": 225.4309,
        "meta_ephemeris_type": 0,
        "meta_classification_type": "U",
        "meta_norad_cat_id": 38091,
        "meta_element_set_no": 999,
        "meta_rev_at_epoch": 5040,
        "meta_bstar": 0,
        "meta_mean_motion_dot": 7.5e-07,
        "meta_mean_motion_ddot": 0,
        "tle_line1": "1 38091U 12008A   25337.08539073  .00000075  00000+0  00000+0 0  9997",
        "tle_line2": "2 38091   3.0833  70.7346 0012290 225.4564 225.4309  1.00272197 50402"
      },
      "geometry": {
        "type": "Point",
        "coordinates": [
          8.609469319210259,
          -2.709244640030308
        ]
      }
    },
    {
      "type": "Feature",
      "properties": {
        "norad_id": 38250,
        "name": "BEIDOU-2 M3 (C11)",
        "group": "gnss",
        "lat": -40.79413476574258,
        "lon": -84.28110571992525,
        "alt_km": 21476.411844863826,
        "timestamp": "2025-12-03T15:48:03.315633+00:00",
        "meta_object_name": "BEIDOU-2 M3 (C11)",
        "meta_object_id": "2012-018A",
        "meta_epoch": "2025-12-01T01:13:35.126400",
        "meta_mean_motion": 1.86229725,
        "meta_eccentricity": 0.00245382,
        "meta_inclination": 55.9302,
        "meta_ra_of_asc_node": 311.5507,
        "meta_arg_of_pericenter": 273.3676,
        "meta_mean_anomaly": 86.348,
        "meta_ephemeris_type": 0,
        "meta_classification_type": "U",
        "meta_norad_cat_id": 38250,
        "meta_element_set_no": 999,
        "meta_rev_at_epoch": 9225,
        "meta_bstar": 0,
        "meta_mean_motion_dot": -5.3e-07,
        "meta_mean_motion_ddot": 0,
        "tle_line1": "1 38250U 12018A   25335.05110100 -.00000053  00000+0  00000+0 0  9993",
        "tle_line2": "2 38250  55.9302 311.5507 0024538 273.3676  86.3480  1.86229725 92251"
      },
      "geometry": {
        "type": "Point",
        "coordinates": [
          -84.28110571992525,
          -40.79413476574258
        ]
      }
    },
    {
      "type": "Feature",
      "properties": {
        "norad_id": 38251,
        "name": "BEIDOU-2 M4 (C12)",
        "group": "gnss",
        "lat": -5.295795144437622,
        "lon": -52.935425469739,
        "alt_km": 21519.355505910087,
        "timestamp": "2025-12-03T15:48:03.315645+00:00",
        "meta_object_name": "BEIDOU-2 M4 (C12)",
        "meta_object_id": "2012-018B",
        "meta_epoch": "2025-11-30T23:35:43.237248",
        "meta_mean_motion": 1.86229405,
        "meta_eccentricity": 0.00156645,
        "meta_inclination": 55.8317,
        "meta_ra_of_asc_node": 310.7829,
        "meta_arg_of_pericenter": 276.4205,
        "meta_mean_anomaly": 83.3972,
        "meta_ephemeris_type": 0,
        "meta_classification_type": "U",
        "meta_norad_cat_id": 38251,
        "meta_element_set_no": 999,
        "meta_rev_at_epoch": 9225,
        "meta_bstar": 0,
        "meta_mean_motion_dot": -5.3e-07,
        "meta_mean_motion_ddot": 0,
        "tle_line1": "1 38251U 12018B   25334.98313932 -.00000053  00000+0  00000+0 0  9993",
        "tle_line2": "2 38251  55.8317 310.7829 0015664 276.4205  83.3972  1.86229405 92255"
      },
      "geometry": {
        "type": "Point",
        "coordinates": [
          -52.935425469739,
          -5.295795144437622
        ]
      }
    },
    {
      "type": "Feature",
      "properties": {
        "norad_id": 38652,
        "name": "SES-5 (EGNOS/PRN 136)",
        "group": "gnss",
        "lat": 0.011874846798432474,
        "lon": -45.257375776010136,
        "alt_km": 35782.494339268706,
        "timestamp": "2025-12-03T15:48:03.315656+00:00",
        "meta_object_name": "SES-5 (EGNOS/PRN 136)",
        "meta_object_id": "2012-036A",
        "meta_epoch": "2025-12-03T06:55:48.579744",
        "meta_mean_motion": 1.0027114,
        "meta_eccentricity": 0.00021441,
        "meta_inclination": 0.0592,
        "meta_ra_of_asc_node": 303.2756,
        "meta_arg_of_pericenter": 305.781,
        "meta_mean_anomaly": 292.2636,
        "meta_ephemeris_type": 0,
        "meta_classification_type": "U",
        "meta_norad_cat_id": 38652,
        "meta_element_set_no": 999,
        "meta_rev_at_epoch": 4250,
        "meta_bstar": 0,
        "meta_mean_motion_dot": 5.3e-07,
        "meta_mean_motion_ddot": 0,
        "tle_line1": "1 38652U 12036A   25337.28875671  .00000053  00000+0  00000+0 0  9996",
        "tle_line2": "2 38652   0.0592 303.2756 0002144 305.7810 292.2636  1.00271140 42500"
      },
      "geometry": {
        "type": "Point",
        "coordinates": [
          -45.257375776010136,
          0.011874846798432474
        ]
      }
    },
    {
      "type": "Feature",
      "properties": {
        "norad_id": 38775,
        "name": "BEIDOU-2 M6 (C14)",
        "group": "gnss",
        "lat": -6.128422258416607,
        "lon": -106.5380500702357,
        "alt_km": 21557.563513329926,
        "timestamp": "2025-12-03T15:48:03.315679+00:00",
        "meta_object_name": "BEIDOU-2 M6 (C14)",
        "meta_object_id": "2012-050B",
        "meta_epoch": "2025-12-01T18:25:55.892928",
        "meta_mean_motion": 1.86230731,
        "meta_eccentricity": 0.0010865,
        "meta_inclination": 56.3691,
        "meta_ra_of_asc_node": 69.4317,
        "meta_arg_of_pericenter": 346.4712,
        "meta_mean_anomaly": 13.5024,
        "meta_ephemeris_type": 0,
        "meta_classification_type": "U",
        "meta_norad_cat_id": 38775,
        "meta_element_set_no": 999,
        "meta_rev_at_epoch": 8963,
        "meta_bstar": 0,
        "meta_mean_motion_dot": -4.3e-07,
        "meta_mean_motion_ddot": 0,
        "tle_line1": "1 38775U 12050B   25335.76800802 -.00000043  00000+0  00000+0 0  9993",
        "tle_line2": "2 38775  56.3691  69.4317 0010865 346.4712  13.5024  1.86230731 89631"
      },
      "geometry": {
        "type": "Point",
        "coordinates": [
          -106.5380500702357,
          -6.128422258416607
        ]
      }
    },
    {
      "type": "Feature",
      "properties": {
        "norad_id": 38779,
        "name": "GSAT-10 (GAGAN/PRN 128)",
        "group": "gnss",
        "lat": 0.043548958533525896,
        "lon": 32.669726879406895,
        "alt_km": 35789.450401510185,
        "timestamp": "2025-12-03T15:48:03.315691+00:00",
        "meta_object_name": "GSAT-10 (GAGAN/PRN 128)",
        "meta_object_id": "2012-051B",
        "meta_epoch": "2025-12-03T07:17:53.962656",
        "meta_mean_motion": 1.00269121,
        "meta_eccentricity": 0.00024784,
        "meta_inclination": 0.0325,
        "meta_ra_of_asc_node": 262.5069,
        "meta_arg_of_pericenter": 234.8694,
        "meta_mean_anomaly": 127.4609,
        "meta_ephemeris_type": 0,
        "meta_classification_type": "U",
        "meta_norad_cat_id": 38779,
        "meta_element_set_no": 999,
        "meta_rev_at_epoch": 4813,
        "meta_bstar": 0,
        "meta_mean_motion_dot": -1.45e-06,
        "meta_mean_motion_ddot": 0,
        "tle_line1": "1 38779U 12051B   25337.30409679 -.00000145  00000+0  00000+0 0  9990",
        "tle_line2": "2 38779   0.0325 262.5069 0002478 234.8694 127.4609  1.00269121 48130"
      },
      "geometry": {
        "type": "Point",
        "coordinates": [
          32.669726879406895,
          0.043548958533525896
        ]
      }
    },
    {
      "type": "Feature",
      "properties": {
        "norad_id": 38833,
        "name": "GPS BIIF-3  (PRN 24)",
        "group": "gnss",
        "lat": -20.1206207718578,
        "lon": -12.6823439672458,
        "alt_km": 20545.836463230342,
        "timestamp": "2025-12-03T15:48:03.315702+00:00",
        "meta_object_name": "GPS BIIF-3  (PRN 24)",
        "meta_object_id": "2012-053A",
        "meta_epoch": "2025-12-01T21:10:58.228896",
        "meta_mean_motion": 2.00564835,
        "meta_eccentricity": 0.01754817,
        "meta_inclination": 53.5559,
        "meta_ra_of_asc_node": 151.6834,
        "meta_arg_of_pericenter": 63.8436,
        "meta_mean_anomaly": 297.9871,
        "meta_ephemeris_type": 0,
        "meta_classification_type": "U",
        "meta_norad_cat_id": 38833,
        "meta_element_set_no": 999,
        "meta_rev_at_epoch": 9548,
        "meta_bstar": 0,
        "meta_mean_motion_dot": 1.16e-06,
        "meta_mean_motion_ddot": 0,
        "tle_line1": "1 38833U 12053A   25335.88261839  .00000116  00000+0  00000+0 0  9995",
        "tle_line2": "2 38833  53.5559 151.6834 0175481  63.8436 297.9871  2.00564835 95485"
      },
      "geometry": {
        "type": "Point",
        "coordinates": [
          -12.6823439672458,
          -20.1206207718578
        ]
      }
    }
  ]
}